{"type": "FeatureCollection", "features": [ {"type": "Feature", "properties": {"norad_id": 34529, "name": "IRIDIUM 33 DEB", "group": "iridium-33-debris", "lat": 35.92427081945324, "lon": 39.28014292216664, "alt_km": 756.7982643395417, "timestamp": "2025-12-09T20:37:09.674180+00:00", "meta": {"OBJECT_NAME": "IRIDIUM 33 DEB", "OBJECT_ID": "1997-051HW", "EPOCH": "2025-12-09T03:46:56.686656", "MEAN_MOTION": 14.40611183, "ECCENTRICITY": 0.00043514, "INCLINATION": 86.3644, "RA_OF_ASC_NODE": 36.9388, "ARG_OF_PERICENTER": 189.2574, "MEAN_ANOMALY": 170.8546, "EPHEMERIS_TYPE": 0, "CLASSIFICATION_TYPE": "U", "NORAD_CAT_ID": 34529, "ELEMENT_SET_NO": 999, "REV_AT_EPOCH": 88090, "BSTAR": 0.00017454195, "MEAN_MOTION_DOT": 5.76e-06, "MEAN_MOTION_DDOT": 0}, "tle": {"line1": "1 34529U 97051HW  25343.15760054  .00000576  00000+0  17454-3 0  9991", "line2": "2 34529  86.3644  36.9388 0004351 189.2574 170.8546 14.40611183880907"}}, "geometry": {"type": "Point", "coordinates": [39.28014292216664, 35.92427081945324]}}, {"type": "Feature", "properties": {"norad_id": 34538, "name": "IRIDIUM 33 DEB", "group": "iridium-33-debris", "lat": -32.00409784085424, "lon": -170.85015544850762, "alt_km": 769.8358491049785, "timestamp": "2025-12-09T20:37:09.674191+00:00", "meta": {"OBJECT_NAME": "IRIDIUM 33 DEB", "OBJECT_ID": "1997-051JF", "EPOCH": "2025-12-09T06:51:33.177024", "MEAN_MOTION": 14.42616834, "ECCENTRICITY": 0.0033201, "INCLINATION": 86.2773, "RA_OF_ASC_NODE": 7.0688, "ARG_OF_PERICENTER": 339.7636, "MEAN_ANOMALY": 136.8152, "EPHEMERIS_TYPE": 0, "CLASSIFICATION_TYPE": "U", "NORAD_CAT_ID": 34538, "ELEMENT_SET_NO": 999, "REV_AT_EPOCH": 87706, "BSTAR": 0.0014099, "MEAN_MOTION_DOT": 4.732e-05, "MEAN_MOTION_DDOT": 0}, "tle": {"line1": "1 34538U 97051JF  25343.28580066  .00004732  00000+0  14099-2 0  9997", "line2": "2 34538  86.2773   7.0688 0033201 339.7636 136.8152 14.42616834877066"}}, "geometry": {"type": "Point", "coordinates": [-170.85015544850762, -32.00409784085424]}}, {"type": "Feature", "properties": {"norad_id": 34540, "name": "IRIDIUM 33 DEB", "group": "iridium-33-debris", "lat": -67.1593537334308, "lon": -59.88770471105984, "alt_km": 657.8773232045114, "timestamp": "2025-12-09T20:37:09.674201+00:00", "meta": {"OBJECT_NAME": "IRIDIUM 33 DEB", "OBJECT_ID": "1997-051JH", "EPOCH": "2025-12-09T10:06:38.327616", "MEAN_MOTION": 14.75206443, "ECCENTRICITY": 0.00158264, "INCLINATION": 86.3109, "RA_OF_ASC_NODE": 309.1237, "ARG_OF_PERICENTER": 170.9061, "MEAN_ANOMALY": 317.6863, "EPHEMERIS_TYPE": 0, "CLASSIFICATION_TYPE": "U", "NORAD_CAT_ID": 34540, "ELEMENT_SET_NO": 999, "REV_AT_EPOCH": 88972, "BSTAR": 0.0023004442, "MEAN_MOTION_DOT": 0.00015619, "MEAN_MOTION_DDOT": 0}, "tle": {"line1": "1 34540U 97051JH  25343.42127694  .00015619  00000+0  23004-2 0  9992", "line2": "2 34540  86.3109 309.1237 0015826 170.9061 317.6863 14.75206443889720"}}, "geometry": {"type": "Point", "coordinates": [-59.88770471105984, -67.1593537334308]}}, {"type": "Feature", "properties": {"norad_id": 34648, "name": "IRIDIUM 33 DEB", "group": "iridium-33-debris", "lat": 22.217908893255018, "lon": -75.41384977891634, "alt_km": 816.7953830367387, "timestamp": "2025-12-09T20:37:09.674212+00:00", "meta": {"OBJECT_NAME": "IRIDIUM 33 DEB", "OBJECT_ID": "1997-051JZ", "EPOCH": "2025-12-08T20:41:39.004800", "MEAN_MOTION": 14.11300262, "ECCENTRICITY": 0.01839546, "INCLINATION": 86.3913, "RA_OF_ASC_NODE": 283.5113, "ARG_OF_PERICENTER": 310.9542, "MEAN_ANOMALY": 47.5843, "EPHEMERIS_TYPE": 0, "CLASSIFICATION_TYPE": "U", "NORAD_CAT_ID": 34648, "ELEMENT_SET_NO": 999, "REV_AT_EPOCH": 84906, "BSTAR": 0.013206348, "MEAN_MOTION_DOT": 0.00028062, "MEAN_MOTION_DDOT": 0}, "tle": {"line1": "1 34648U 97051JZ  25342.86225700  .00028062  00000+0  13206-1 0  9993", "line2": "2 34648  86.3913 283.5113 0183954 310.9542  47.5843 14.11300262849062"}}, "geometry": {"type": "Point", "coordinates": [-75.41384977891634, 22.217908893255018]}}, {"type": "Feature", "properties": {"norad_id": 34651, "name": "IRIDIUM 33 DEB", "group": "iridium-33-debris", "lat": -68.72045374822083, "lon": 132.20043410565358, "alt_km": 790.6684867693111, "timestamp": "2025-12-09T20:37:09.674222+00:00", "meta": {"OBJECT_NAME": "IRIDIUM 33 DEB", "OBJECT_ID": "1997-051KC", "EPOCH": "2025-12-09T10:50:21.790176", "MEAN_MOTION": 14.25726982, "ECCENTRICITY": 0.01420306, "INCLINATION": 86.2852, "RA_OF_ASC_NODE": 141.9761, "ARG_OF_PERICENTER": 214.381, "MEAN_ANOMALY": 144.8131, "EPHEMERIS_TYPE": 0, "CLASSIFICATION_TYPE": "U", "NORAD_CAT_ID": 34651, "ELEMENT_SET_NO": 999, "REV_AT_EPOCH": 85849, "BSTAR": 0.004953375, "MEAN_MOTION_DOT": 0.00013098, "MEAN_MOTION_DDOT": 0}, "tle": {"line1": "1 34651U 97051KC  25343.45164109  .00013098  00000+0  49534-2 0  9995", "line2": "2 34651  86.2852 141.9761 0142030 214.3810 144.8131 14.25726982858492"}}, "geometry": {"type": "Point", "coordinates": [132.20043410565358, -68.72045374822083]}}, {"type": "Feature", "properties": {"norad_id": 34652, "name": "IRIDIUM 33 DEB", "group": "iridium-33-debris", "lat": -34.84679372560109, "lon": -21.276340941356406, "alt_km": 675.2524341282942, "timestamp": "2025-12-09T20:37:09.674233+00:00", "meta": {"OBJECT_NAME": "IRIDIUM 33 DEB", "OBJECT_ID": "1997-051KD", "EPOCH": "2025-12-09T11:37:22.959264", "MEAN_MOTION": 14.62008914, "ECCENTRICITY": 0.00262076, "INCLINATION": 86.3314, "RA_OF_ASC_NODE": 341.4507, "ARG_OF_PERICENTER": 310.1115, "MEAN_ANOMALY": 203.3524, "EPHEMERIS_TYPE": 0, "CLASSIFICATION_TYPE": "U", "NORAD_CAT_ID": 34652, "ELEMENT_SET_NO": 999, "REV_AT_EPOCH": 88436, "BSTAR": 0.0015009226, "MEAN_MOTION_DOT": 7.584e-05, "MEAN_MOTION_DDOT": 0}, "tle": {"line1": "1 34652U 97051KD  25343.48429351  .00007584  00000+0  15009-2 0  9995", "line2": "2 34652  86.3314 341.4507 0026207 310.1115 203.3524 14.62008914884363"}}, "geometry": {"type": "Point", "coordinates": [-21.276340941356406, -34.84679372560109]}}, {"type": "Feature", "properties": {"norad_id": 34690, "name": "IRIDIUM 33 DEB", "group": "iridium-33-debris", "lat": -79.22891849562367, "lon": -122.30812044817371, "alt_km": 722.4707857812537, "timestamp": "2025-12-09T20:37:09.674243+00:00", "meta": {"OBJECT_NAME": "IRIDIUM 33 DEB", "OBJECT_ID": "1997-051KM", "EPOCH": "2025-12-09T15:10:43.096800", "MEAN_MOTION": 14.55078564, "ECCENTRICITY": 0.00112096, "INCLINATION": 86.378, "RA_OF_ASC_NODE": 38.3417, "ARG_OF_PERICENTER": 38.8624, "MEAN_ANOMALY": 114.3139, "EPHEMERIS_TYPE": 0, "CLASSIFICATION_TYPE": "U", "NORAD_CAT_ID": 34690, "ELEMENT_SET_NO": 999, "REV_AT_EPOCH": 88049, "BSTAR": 0.00073259338, "MEAN_MOTION_DOT": 3.182e-05, "MEAN_MOTION_DDOT": 0}, "tle": {"line1": "1 34690U 97051KM  25343.63244325  .00003182  00000+0  73259-3 0  9992", "line2": "2 34690  86.3780  38.3417 0011209  38.8624 114.3139 14.55078564880492"}}, "geometry": {"type": "Point", "coordinates": [-122.30812044817371, -79.22891849562367]}}, {"type": "Feature", "properties": {"norad_id": 34693, "name": "IRIDIUM 33 DEB", "group": "iridium-33-debris", "lat": -79.95538925061639, "lon": -76.13399868070705, "alt_km": 500.2202236667663, "timestamp": "2025-12-09T20:37:09.674253+00:00", "meta": {"OBJECT_NAME": "IRIDIUM 33 DEB", "OBJECT_ID": "1997-051KQ", "EPOCH": "2025-12-09T15:26:24.520704", "MEAN_MOTION": 15.26753605, "ECCENTRICITY": 0.00147136, "INCLINATION": 86.3066, "RA_OF_ASC_NODE": 305.3612, "ARG_OF_PERICENTER": 57.7101, "MEAN_ANOMALY": 116.4545, "EPHEMERIS_TYPE": 0, "CLASSIFICATION_TYPE": "U", "NORAD_CAT_ID": 34693, "ELEMENT_SET_NO": 999, "REV_AT_EPOCH": 88867, "BSTAR": 0.0058526638, "MEAN_MOTION_DOT": 0.00157332, "MEAN_MOTION_DDOT": 0}, "tle": {"line1": "1 34693U 97051KQ  25343.64333936  .00157332  00000+0  58527-2 0  9990", "line2": "2 34693  86.3066 305.3612 0014713  57.7101 116.4545 15.26753605888676"}}, "geometry": {"type": "Point", "coordinates": [-76.13399868070705, -79.95538925061639]}}, {"type": "Feature", "properties": {"norad_id": 34696, "name": "IRIDIUM 33 DEB", "group": "iridium-33-debris", "lat": -63.14899211831438, "lon": 21.28726889881884, "alt_km": 710.3622038483109, "timestamp": "2025-12-09T20:37:09.674263+00:00", "meta": {"OBJECT_NAME": "IRIDIUM 33 DEB", "OBJECT_ID": "1997-051KT", "EPOCH": "2025-12-09T09:30:59.474016", "MEAN_MOTION": 14.64808482, "ECCENTRICITY": 0.00742951, "INCLINATION": 86.1845, "RA_OF_ASC_NODE": 29.0773, "ARG_OF_PERICENTER": 178.7552, "MEAN_ANOMALY": 199.1834, "EPHEMERIS_TYPE": 0, "CLASSIFICATION_TYPE": "U", "NORAD_CAT_ID": 34696, "ELEMENT_SET_NO": 999, "REV_AT_EPOCH": 86624, "BSTAR": 0.0068804754, "MEAN_MOTION_DOT": 0.00038407, "MEAN_MOTION_DDOT": 0}, "tle": {"line1": "1 34696U 97051KT  25343.39652169  .00038407  00000+0  68805-2 0  9998", "line2": "2 34696  86.1845  29.0773 0074295 178.7552 199.1834 14.64808482866248"}}, "geometry": {"type": "Point", "coordinates": [21.28726889881884, -63.14899211831438]}}, {"type": "Feature", "properties": {"norad_id": 34765, "name": "IRIDIUM 33 DEB", "group": "iridium-33-debris", "lat": 79.32054576105767, "lon": 53.841967928350705, "alt_km": 758.1812754976936, "timestamp": "2025-12-09T20:37:09.674273+00:00", "meta": {"OBJECT_NAME": "IRIDIUM 33 DEB", "OBJECT_ID": "1997-051LJ", "EPOCH": "2025-12-09T14:17:11.892192", "MEAN_MOTION": 14.40453375, "ECCENTRICITY": 0.00151251, "INCLINATION": 86.3395, "RA_OF_ASC_NODE": 34.1109, "ARG_OF_PERICENTER": 222.4488, "MEAN_ANOMALY": 290.2103, "EPHEMERIS_TYPE": 0, "CLASSIFICATION_TYPE": "U", "NORAD_CAT_ID": 34765, "ELEMENT_SET_NO": 999, "REV_AT_EPOCH": 87568, "BSTAR": 0.0006924344, "MEAN_MOTION_DOT": 2.222e-05, "MEAN_MOTION_DDOT": 0}, "tle": {"line1": "1 34765U 97051LJ  25343.59527653  .00002222  00000+0  69243-3 0  9990", "line2": "2 34765  86.3395  34.1109 0015125 222.4488 290.2103 14.40453375875680"}}, "geometry": {"type": "Point", "coordinates": [53.841967928350705, 79.32054576105767]}}]}